{"type": "FeatureCollection", "features": [ {"type": "Feature", "properties": {"norad_id": 66052, "name": "HRC MONOBLOCK CAMERA", "group": "stations", "lat": 14.132940249767925, "lon": 117.84214597787691, "alt_km": 403.68999744515804, "timestamp": "2025-12-19T18:58:40.359195+00:00", "meta": {"OBJECT_NAME": "HRC MONOBLOCK CAMERA", "OBJECT_ID": "1998-067XR", "EPOCH": "2025-12-18T22:50:37.822560", "MEAN_MOTION": 15.54565744, "ECCENTRICITY": 0.00026331, "INCLINATION": 51.6297, "RA_OF_ASC_NODE": 110.5221, "ARG_OF_PERICENTER": 211.9232, "MEAN_ANOMALY": 148.16, "EPHEMERIS_TYPE": 0, "CLASSIFICATION_TYPE": "U", "NORAD_CAT_ID": 66052, "ELEMENT_SET_NO": 999, "REV_AT_EPOCH": 980, "BSTAR": 0.00046533518, "MEAN_MOTION_DOT": 0.00030942, "MEAN_MOTION_DDOT": 0}, "tle": {"line1": "1 66052U 98067XR  25352.95182665  .00030942  00000+0  46534-3 0  9990", "line2": "2 66052  51.6297 110.5221 0002633 211.9232 148.1600 15.54565744  9800"}}, "geometry": {"type": "Point", "coordinates": [117.84214597787691, 14.132940249767925]}}, {"type": "Feature", "properties": {"norad_id": 66174, "name": "HTV-X1", "group": "stations", "lat": 23.185631885205016, "lon": -92.27589424987421, "alt_km": 416.14832470818783, "timestamp": "2025-12-19T18:58:40.359205+00:00", "meta": {"OBJECT_NAME": "HTV-X1", "OBJECT_ID": "2025-241A", "EPOCH": "2025-12-19T01:18:34.104096", "MEAN_MOTION": 15.49660414, "ECCENTRICITY": 0.00031768, "INCLINATION": 51.6316, "RA_OF_ASC_NODE": 111.2076, "ARG_OF_PERICENTER": 269.7772, "MEAN_ANOMALY": 90.2853, "EPHEMERIS_TYPE": 0, "CLASSIFICATION_TYPE": "U", "NORAD_CAT_ID": 66174, "ELEMENT_SET_NO": 999, "REV_AT_EPOCH": 51, "BSTAR": 0.00012867135, "MEAN_MOTION_DOT": 6.809e-05, "MEAN_MOTION_DDOT": 0}, "tle": {"line1": "1 66174U 25241A   25353.05456139  .00006809  00000+0  12867-3 0  9998", "line2": "2 66174  51.6316 111.2076 0003176 269.7772  90.2853 15.49660414   516"}}, "geometry": {"type": "Point", "coordinates": [-92.27589424987421, 23.185631885205016]}}, {"type": "Feature", "properties": {"norad_id": 66515, "name": "SZ-21 MODULE", "group": "stations", "lat": 8.303450845286418, "lon": 143.51194253331448, "alt_km": 380.4955892420012, "timestamp": "2025-12-19T18:58:40.359215+00:00", "meta": {"OBJECT_NAME": "SZ-21 MODULE", "OBJECT_ID": "2025-246C", "EPOCH": "2025-12-19T05:59:43.929600", "MEAN_MOTION": 15.62811821, "ECCENTRICITY": 0.0005734, "INCLINATION": 41.4773, "RA_OF_ASC_NODE": 336.3242, "ARG_OF_PERICENTER": 295.0263, "MEAN_ANOMALY": 64.9981, "EPHEMERIS_TYPE": 0, "CLASSIFICATION_TYPE": "U", "NORAD_CAT_ID": 66515, "ELEMENT_SET_NO": 999, "REV_AT_EPOCH": 546, "BSTAR": 0.00023433349, "MEAN_MOTION_DOT": 0.00021457, "MEAN_MOTION_DDOT": 0}, "tle": {"line1": "1 66515U 25246C   25353.24981400  .00021457  00000+0  23433-3 0  9994", "line2": "2 66515  41.4773 336.3242 0005734 295.0263  64.9981 15.62811821  5467"}}, "geometry": {"type": "Point", "coordinates": [143.51194253331448, 8.303450845286418]}}, {"type": "Feature", "properties": {"norad_id": 66645, "name": "SHENZHOU-22", "group": "stations", "lat": 3.796591704880304, "lon": 149.58132765435087, "alt_km": 387.530010559718, "timestamp": "2025-12-19T18:58:40.359225+00:00", "meta": {"OBJECT_NAME": "SHENZHOU-22", "OBJECT_ID": "2025-272A", "EPOCH": "2025-12-19T05:56:22.256448", "MEAN_MOTION": 15.59458428, "ECCENTRICITY": 0.00077261, "INCLINATION": 41.4684, "RA_OF_ASC_NODE": 337.1916, "ARG_OF_PERICENTER": 88.0762, "MEAN_ANOMALY": 272.0962, "EPHEMERIS_TYPE": 0, "CLASSIFICATION_TYPE": "U", "NORAD_CAT_ID": 66645, "ELEMENT_SET_NO": 999, "REV_AT_EPOCH": 26357, "BSTAR": 0.00024976186, "MEAN_MOTION_DOT": 0.00020088, "MEAN_MOTION_DDOT": 0}, "tle": {"line1": "1 66645U 25272A   25353.24747982  .00020088  00000+0  24976-3 0  9994", "line2": "2 66645  41.4684 337.1916 0007726  88.0762 272.0962 15.59458428263571"}}, "geometry": {"type": "Point", "coordinates": [149.58132765435087, 3.796591704880304]}}, {"type": "Feature", "properties": {"norad_id": 66664, "name": "SOYUZ-MS 28", "group": "stations", "lat": 23.185630455163114, "lon": -92.27589282622631, "alt_km": 416.14832487680906, "timestamp": "2025-12-19T18:58:40.359235+00:00", "meta": {"OBJECT_NAME": "SOYUZ-MS 28", "OBJECT_ID": "2025-275A", "EPOCH": "2025-12-19T01:18:34.104096", "MEAN_MOTION": 15.49660414, "ECCENTRICITY": 0.00031768, "INCLINATION": 51.6316, "RA_OF_ASC_NODE": 111.2076, "ARG_OF_PERICENTER": 269.7772, "MEAN_ANOMALY": 90.2853, "EPHEMERIS_TYPE": 0, "CLASSIFICATION_TYPE": "U", "NORAD_CAT_ID": 66664, "ELEMENT_SET_NO": 999, "REV_AT_EPOCH": 128, "BSTAR": 0.00012867135, "MEAN_MOTION_DOT": 6.809e-05, "MEAN_MOTION_DDOT": 0}, "tle": {"line1": "1 66664U 25275A   25353.05456139  .00006809  00000+0  12867-3 0  9999", "line2": "2 66664  51.6316 111.2076 0003176 269.7772  90.2853 15.49660414  1285"}}, "geometry": {"type": "Point", "coordinates": [-92.27589282622631, 23.185630455163114]}}, {"type": "Feature", "properties": {"norad_id": 66906, "name": "1998-067XS", "group": "stations", "lat": -21.98433787784452, "lon": -53.90856200750147, "alt_km": 415.2209303077161, "timestamp": "2025-12-19T18:58:40.359245+00:00", "meta": {"OBJECT_NAME": "1998-067XS", "OBJECT_ID": "1998-067XS", "EPOCH": "2025-12-18T14:14:47.325984", "MEAN_MOTION": 15.50877887, "ECCENTRICITY": 0.00030668, "INCLINATION": 51.6311, "RA_OF_ASC_NODE": 113.3804, "ARG_OF_PERICENTER": 230.517, "MEAN_ANOMALY": 129.5548, "EPHEMERIS_TYPE": 0, "CLASSIFICATION_TYPE": "U", "NORAD_CAT_ID": 66906, "ELEMENT_SET_NO": 999, "REV_AT_EPOCH": 252, "BSTAR": 0.00040765177, "MEAN_MOTION_DOT": 0.00023614, "MEAN_MOTION_DDOT": 0}, "tle": {"line1": "1 66906U 98067XS  25352.59360331  .00023614  00000+0  40765-3 0  9994", "line2": "2 66906  51.6311 113.3804 0003066 230.5170 129.5548 15.50877887  2528"}}, "geometry": {"type": "Point", "coordinates": [-53.90856200750147, -21.98433787784452]}}, {"type": "Feature", "properties": {"norad_id": 66907, "name": "1998-067XT", "group": "stations", "lat": -48.37995845277911, "lon": -9.560190671652506, "alt_km": 411.9687749259683, "timestamp": "2025-12-19T18:58:40.359255+00:00", "meta": {"OBJECT_NAME": "1998-067XT", "OBJECT_ID": "1998-067XT", "EPOCH": "2025-12-18T14:04:54.777504", "MEAN_MOTION": 15.52162368, "ECCENTRICITY": 0.00039418, "INCLINATION": 51.6304, "RA_OF_ASC_NODE": 113.334, "ARG_OF_PERICENTER": 262.1658, "MEAN_ANOMALY": 97.8884, "EPHEMERIS_TYPE": 0, "CLASSIFICATION_TYPE": "U", "NORAD_CAT_ID": 66907, "ELEMENT_SET_NO": 999, "REV_AT_EPOCH": 252, "BSTAR": 0.0008765902, "MEAN_MOTION_DOT": 0.0005395, "MEAN_MOTION_DDOT": 0}, "tle": {"line1": "1 66907U 98067XT  25352.58674511  .00053950  00000+0  87659-3 0  9991", "line2": "2 66907  51.6304 113.3340 0003941 262.1658  97.8884 15.52162368  2523"}}, "geometry": {"type": "Point", "coordinates": [-9.560190671652506, -48.37995845277911]}}, {"type": "Feature", "properties": {"norad_id": 66908, "name": "1998-067XU", "group": "stations", "lat": -49.711808396132525, "lon": -3.495629531852144, "alt_km": 411.63814345642095, "timestamp": "2025-12-19T18:58:40.359265+00:00", "meta": {"OBJECT_NAME": "1998-067XU", "OBJECT_ID": "1998-067XU", "EPOCH": "2025-12-18T14:03:56.443680", "MEAN_MOTION": 15.52259493, "ECCENTRICITY": 0.00039838, "INCLINATION": 51.6306, "RA_OF_ASC_NODE": 113.3296, "ARG_OF_PERICENTER": 260.0245, "MEAN_ANOMALY": 100.0295, "EPHEMERIS_TYPE": 0, "CLASSIFICATION_TYPE": "U", "NORAD_CAT_ID": 66908, "ELEMENT_SET_NO": 999, "REV_AT_EPOCH": 252, "BSTAR": 0.00087908108, "MEAN_MOTION_DOT": 0.00054298, "MEAN_MOTION_DDOT": 0}, "tle": {"line1": "1 66908U 98067XU  25352.58606995  .00054298  00000+0  87908-3 0  9996", "line2": "2 66908  51.6306 113.3296 0003983 260.0245 100.0295 15.52259493  2520"}}, "geometry": {"type": "Point", "coordinates": [-3.495629531852144, -49.711808396132525]}}, {"type": "Feature", "properties": {"norad_id": 66909, "name": "SILVERSAT", "group": "stations", "lat": -50.91560663675648, "lon": 4.606761335227531, "alt_km": 411.2787639878161, "timestamp": "2025-12-19T18:58:40.359275+00:00", "meta": {"OBJECT_NAME": "SILVERSAT", "OBJECT_ID": "1998-067XV", "EPOCH": "2025-12-18T14:02:44.424960", "MEAN_MOTION": 15.52406005, "ECCENTRICITY": 0.00038673, "INCLINATION": 51.6304, "RA_OF_ASC_NODE": 113.3244, "ARG_OF_PERICENTER": 263.4051, "MEAN_ANOMALY": 96.6498, "EPHEMERIS_TYPE": 0, "CLASSIFICATION_TYPE": "U", "NORAD_CAT_ID": 66909, "ELEMENT_SET_NO": 999, "REV_AT_EPOCH": 252, "BSTAR": 0.00095009624, "MEAN_MOTION_DOT": 0.00059069, "MEAN_MOTION_DDOT": 0}, "tle": {"line1": "1 66909U 98067XV  25352.58523640  .00059069  00000+0  95010-3 0  9996", "line2": "2 66909  51.6304 113.3244 0003867 263.4051  96.6498 15.52406005  2523"}}, "geometry": {"type": "Point", "coordinates": [4.606761335227531, -50.91560663675648]}}, {"type": "Feature", "properties": {"norad_id": 66910, "name": "1998-067XW", "group": "stations", "lat": -51.56545918146799, "lon": 20.557390237658293, "alt_km": 411.26735001265024, "timestamp": "2025-12-19T18:58:40.359284+00:00", "meta": {"OBJECT_NAME": "1998-067XW", "OBJECT_ID": "1998-067XW", "EPOCH": "2025-12-18T14:00:11.133216", "MEAN_MOTION": 15.5243188, "ECCENTRICITY": 0.00043225, "INCLINATION": 51.6304, "RA_OF_ASC_NODE": 113.3129, "ARG_OF_PERICENTER": 240.7939, "MEAN_ANOMALY": 119.2619, "EPHEMERIS_TYPE": 0, "CLASSIFICATION_TYPE": "U", "NORAD_CAT_ID": 66910, "ELEMENT_SET_NO": 999, "REV_AT_EPOCH": 252, "BSTAR": 0.00081329162, "MEAN_MOTION_DOT": 0.00050492, "MEAN_MOTION_DDOT": 0}, "tle": {"line1": "1 66910U 98067XW  25352.58346219  .00050492  00000+0  81329-3 0  9992", "line2": "2 66910  51.6304 113.3129 0004322 240.7939 119.2619 15.52431880  2523"}}, "geometry": {"type": "Point", "coordinates": [20.557390237658293, -51.56545918146799]}}]}